{"type":"FeatureCollection","crs":{"type":"name","properties":{"name":"EPSG:2263"}},"features":[{"type":"Feature","properties":{"NUM":"116","SUF":"","BORO":"Staten Island","ZIP":"10307","STREET":"Main Street","PRECINCT":123},"geometry":{"type":"Point","coordinates":[914735,125856]}},{"type":"Feature","properties":{"NUM":"2320","SUF":"","BORO":"Staten Island","ZIP":"10306","STREET":"Hylan Boulevard","PRECINCT":122},"geometry":{"type":"Point","coordinates":[954936,148492]}},{"type":"Feature","properties":{"NUM":"2951","SUF":"","BORO":"Brooklyn","ZIP":"11224","STREET":"West 8 Street","PRECINCT":60},"geometry":{"type":"Point","coordinates":[990882,149324]}},{"type":"Feature","properties":{"NUM":"92-24","SUF":"","BORO":"Queens","ZIP":"11693","STREET":"Rockaway Beach Boulevard","PRECINCT":100},"geometry":{"type":"Point","coordinates":[1035226,152911]}},{"type":"Feature","properties":{"NUM":"2575","SUF":"","BORO":"Brooklyn","ZIP":"11223","STREET":"Coney Island Avenue","PRECINCT":61},"geometry":{"type":"Point","coordinates":[995226,155731]}},{"type":"Feature","properties":{"NUM":"1925","SUF":"","BORO":"Brooklyn","ZIP":"11214","STREET":"Bath Avenue","PRECINCT":62},"geometry":{"type":"Point","coordinates":[983393,158778]}},{"type":"Feature","properties":{"NUM":"16-12","SUF":"","BORO":"Queens","ZIP":"11691","STREET":"Mott Avenue","PRECINCT":101},"geometry":{"type":"Point","coordinates":[1053660,159032]}},{"type":"Feature","properties":{"NUM":"970","SUF":"","BORO":"Staten Island","ZIP":"10303","STREET":"Richmond Avenue","PRECINCT":121},"geometry":{"type":"Point","coordinates":[942516,166514]}},{"type":"Feature","properties":{"NUM":"5822","SUF":"","BORO":"Brooklyn","ZIP":"11219","STREET":"16 Avenue","PRECINCT":66},"geometry":{"type":"Point","coordinates":[986641,167244]}},{"type":"Feature","properties":{"NUM":"1844","SUF":"","BORO":"Brooklyn","ZIP":"11210","STREET":"Brooklyn Avenue","PRECINCT":63},"geometry":{"type":"Point","coordinates":[1000449,168063]}},{"type":"Feature","properties":{"NUM":"154","SUF":"","BORO":"Brooklyn","ZIP":"11230","STREET":"Lawrence Avenue","PRECINCT":70},"geometry":{"type":"Point","coordinates":[991522,168936]}},{"type":"Feature","properties":{"NUM":"333","SUF":"","BORO":"Brooklyn","ZIP":"11220","STREET":"65 Street","PRECINCT":68},"geometry":{"type":"Point","coordinates":[977973,172088]}},{"type":"Feature","properties":{"NUM":"78","SUF":"","BORO":"Staten Island","ZIP":"10301","STREET":"Richmond Terrace","PRECINCT":120},"geometry":{"type":"Point","coordinates":[962769,174156]}},{"type":"Feature","properties":{"NUM":"9720","SUF":"","BORO":"Brooklyn","ZIP":"11236","STREET":"Foster Avenue","PRECINCT":69},"geometry":{"type":"Point","coordinates":[1010627,175550]}},{"type":"Feature","properties":{"NUM":"2820","SUF":"","BORO":"Brooklyn","ZIP":"11226","STREET":"Snyder Avenue","PRECINCT":67},"geometry":{"type":"Point","coordinates":[998089,175617]}},{"type":"Feature","properties":{"NUM":"830","SUF":"","BORO":"Brooklyn","ZIP":"11232","STREET":"4 Avenue","PRECINCT":72},"geometry":{"type":"Point","coordinates":[983957,179057]}},{"type":"Feature","properties":{"NUM":"421","SUF":"","BORO":"Brooklyn","ZIP":"11225","STREET":"Empire Boulevard","PRECINCT":71},"geometry":{"type":"Point","coordinates":[998715,181403]}},{"type":"Feature","properties":{"NUM":"1470","SUF":"","BORO":"Brooklyn","ZIP":"11212","STREET":"East New York Avenue","PRECINCT":73},"geometry":{"type":"Point","coordinates":[1008237,183683]}},{"type":"Feature","properties":{"NUM":"1000","SUF":"","BORO":"Brooklyn","ZIP":"11208","STREET":"Sutter Avenue","PRECINCT":75},"geometry":{"type":"Point","coordinates":[1017097,183842]}},{"type":"Feature","properties":{"NUM":"127","SUF":"","BORO":"Brooklyn","ZIP":"11213","STREET0":"Utica Avenue","PRECINCT":77},"geometry":{"type":"Point","coordinates":[1003611,185092]}},{"type":"Feature","properties":{"NUM":"167-02","SUF":"","BORO":"Queens","ZIP":"11434","STREET":"Baisley Boulevard","PRECINCT":113},"geometry":{"type":"Point","coordinates":[1046453,187018]}},{"type":"Feature","properties":{"NUM":"65","SUF":"","BORO":"Brooklyn","ZIP":"11217","STREET":"6 Avenue","PRECINCT":78},"geometry":{"type":"Point","coordinates":[991416,187344]}},{"type":"Feature","properties":{"NUM":"103-53","SUF":"","BORO":"Queens","ZIP":"11417","STREET":"101 Street","PRECINCT":106},"geometry":{"type":"Point","coordinates":[1028697,187856]}},{"type":"Feature","properties":{"NUM":"191","SUF":"","BORO":"Brooklyn","ZIP":"11231","STREET":"Union Street","PRECINCT":76},"geometry":{"type":"Point","coordinates":[984184,188426]}},{"type":"Feature","properties":{"NUM":"263-275","SUF":"","BORO":"Brooklyn","ZIP":"11221","STREET":"Tompkins Avenue","PRECINCT":79},"geometry":{"type":"Point","coordinates":[999585,190259]}},{"type":"Feature","properties":{"NUM":"30","SUF":"","BORO":"Brooklyn","ZIP":"11221","STREET":"Ralph Avenue","PRECINCT":81},"geometry":{"type":"Point","coordinates":[1005232,190558]}},{"type":"Feature","properties":{"NUM":"298","SUF":"","BORO":"Brooklyn","ZIP":"11205","STREET":"Classon Avenue","PRECINCT":88},"geometry":{"type":"Point","coordinates":[995213,190677]}},{"type":"Feature","properties":{"NUM":"301","SUF":"","BORO":"Brooklyn","ZIP":"11201","STREET":"Gold Street","PRECINCT":84},"geometry":{"type":"Point","coordinates":[988963,192599]}},{"type":"Feature","properties":{"NUM":"480","SUF":"","BORO":"Brooklyn","ZIP":"11237","STREET":"Knickerbocker Avenue","PRECINCT":83},"geometry":{"type":"Point","coordinates":[1007024,193676]}},{"type":"Feature","properties":{"NUM":"87-34","SUF":"","BORO":"Queens","ZIP":"11418","STREET":"118 Street","PRECINCT":102},"geometry":{"type":"Point","coordinates":[1030954,193882]}},{"type":"Feature","properties":{"NUM":"64-02","SUF":"","BORO":"Queens","ZIP":"11385","STREET":"Catalpa Avenue","PRECINCT":104},"geometry":{"type":"Point","coordinates":[1013746,195891]}},{"type":"Feature","properties":{"NUM":"211","SUF":"","BORO":"Brooklyn","ZIP":"11211","STREET":"Union Avenue","PRECINCT":90},"geometry":{"type":"Point","coordinates":[997936,196638]}},{"type":"Feature","properties":{"NUM":"168-02","SUF":"","BORO":"Queens","ZIP":"11432","STREET":"91 Avenue","PRECINCT":103},"geometry":{"type":"Point","coordinates":[1041744,196947]}},{"type":"Feature","properties":{"NUM":"19","SUF":"","BORO":"Manhattan","ZIP":"10013","STREET":"Elizabeth Street","PRECINCT":5},"geometry":{"type":"Point","coordinates":[984946,200203]}},{"type":"Feature","properties":{"NUM":"19","SUF":"1/2","BORO":"Manhattan","ZIP":"10002","STREET":"Pitt Street","PRECINCT":7},"geometry":{"type":"Point","coordinates":[988737,200262]}},{"type":"Feature","properties":{"NUM":"16","SUF":"","BORO":"Manhattan","ZIP":"10013","STREET":"Ericsson Place","PRECINCT":1},"geometry":{"type":"Point","coordinates":[982292,201720]}},{"type":"Feature","properties":{"NUM":"68-40","SUF":"","BORO":"Queens","ZIP":"11375","STREET":"Austin Street","PRECINCT":112},"geometry":{"type":"Point","coordinates":[1025538,202463]}},{"type":"Feature","properties":{"NUM":"321","SUF":"","BORO":"Manhattan","ZIP":"10003","STREET":"East 5 Street","PRECINCT":9},"geometry":{"type":"Point","coordinates":[987617,203963]}},{"type":"Feature","properties":{"NUM":"92-08-92-18","SUF":"","BORO":"Queens","ZIP":"11428","STREET":"222 Street","PRECINCT":105},"geometry":{"type":"Point","coordinates":[1057661,203985]}},{"type":"Feature","properties":{"NUM":"100","SUF":"","BORO":"Brooklyn","ZIP":"11222","STREET":"Meserole Avenue","PRECINCT":94},"geometry":{"type":"Point","coordinates":[997215,204056]}},{"type":"Feature","properties":{"NUM":"71-01","SUF":"","BORO":"Queens","ZIP":"11365","STREET":"Parsons Boulevard","PRECINCT":107},"geometry":{"type":"Point","coordinates":[1036738,205300]}},{"type":"Feature","properties":{"NUM":"233","SUF":"","BORO":"Manhattan","ZIP":"10014","STREET":"West 10 Street","PRECINCT":6},"geometry":{"type":"Point","coordinates":[982745,206754]}},{"type":"Feature","properties":{"NUM":"230-232","SUF":"","BORO":"Manhattan","ZIP":"10011","STREET":"West 20 Street","PRECINCT":10},"geometry":{"type":"Point","coordinates":[984625,209862]}},{"type":"Feature","properties":{"NUM":"5-47","SUF":"","BORO":"Queens","ZIP":"11101","STREET":"50 Avenue","PRECINCT":108},"geometry":{"type":"Point","coordinates":[996797,209974]}},{"type":"Feature","properties":{"NUM":"94-41","SUF":"","BORO":"Queens","ZIP":"11373","STREET":"43 Avenue","PRECINCT":110},"geometry":{"type":"Point","coordinates":[1020227,210790]}},{"type":"Feature","properties":{"NUM":"357","SUF":"","BORO":"Manhattan","ZIP":"10018","STREET":"West 35 Street","PRECINCT":14},"geometry":{"type":"Point","coordinates":[985664,213946]}},{"type":"Feature","properties":{"NUM":"167","SUF":"","BORO":"Manhattan","ZIP":"10022","STREET":"East 51 Street","PRECINCT":17},"geometry":{"type":"Point","coordinates":[992359,215016]}},{"type":"Feature","properties":{"NUM":"92-15","SUF":"","BORO":"Queens","ZIP":"11369","STREET":"Northern Boulevard","PRECINCT":115},"geometry":{"type":"Point","coordinates":[1018733,215041]}},{"type":"Feature","properties":{"NUM":"45-06","SUF":"","BORO":"Queens","ZIP":"11361","STREET":"215 Street","PRECINCT":111},"geometry":{"type":"Point","coordinates":[1048611,216335]}},{"type":"Feature","properties":{"NUM":"37-05","SUF":"","BORO":"Queens","ZIP":"11354","STREET":"Union Street","PRECINCT":109},"geometry":{"type":"Point","coordinates":[1032175,217068]}},{"type":"Feature","properties":{"NUM":"306","SUF":"","BORO":"Manhattan","ZIP":"10019","STREET":"West 54 Street","PRECINCT":18},"geometry":{"type":"Point","coordinates":[988383,217974]}},{"type":"Feature","properties":{"NUM":"153","SUF":"","BORO":"Manhattan","ZIP":"10065","STREET":"East 67 Street","PRECINCT":19},"geometry":{"type":"Point","coordinates":[994274,218778]}},{"type":"Feature","properties":{"NUM":"34-16","SUF":"","BORO":"Queens","ZIP":"11103","STREET":"Astoria Boulevard South","PRECINCT":114},"geometry":{"type":"Point","coordinates":[1007710,219576]}},{"type":"Feature","properties":{"NUM":"120","SUF":"","BORO":"Manhattan","ZIP":"10024","STREET":"West 82 Street","PRECINCT":20},"geometry":{"type":"Point","coordinates":[991155,224952]}},{"type":"Feature","properties":{"NUM":"164","SUF":"","BORO":"Manhattan","ZIP":"10029","STREET":"East 102 Street","PRECINCT":23},"geometry":{"type":"Point","coordinates":[998854,226780]}},{"type":"Feature","properties":{"NUM":"151","SUF":"","BORO":"Manhattan","ZIP":"10025","STREET":"West 100 Street","PRECINCT":24},"geometry":{"type":"Point","coordinates":[993287,229442]}},{"type":"Feature","properties":{"NUM":"120","SUF":"","BORO":"Manhattan","ZIP":"10035","STREET":"East 119 Street","PRECINCT":25},"geometry":{"type":"Point","coordinates":[1000563,231008]}},{"type":"Feature","properties":{"NUM":"2271-2289","SUF":"","BORO":"Manhattan","ZIP":"10027","STREET":"8 Avenue","PRECINCT":28},"geometry":{"type":"Point","coordinates":[997374,233958]}},{"type":"Feature","properties":{"NUM":"257","SUF":"","BORO":"Bronx","ZIP":"10454","STREET":"Alexander Avenue","PRECINCT":40},"geometry":{"type":"Point","coordinates":[1004922,234527]}},{"type":"Feature","properties":{"NUM":"520","SUF":"","BORO":"Manhattan","ZIP":"10027","STREET":"West 126 Street","PRECINCT":26},"geometry":{"type":"Point","coordinates":[996282,236092]}},{"type":"Feature","properties":{"NUM":"250","SUF":"","BORO":"Manhattan","ZIP":"10030","STREET":"West 135 Street","PRECINCT":32},"geometry":{"type":"Point","coordinates":[999376,236475]}},{"type":"Feature","properties":{"NUM":"1035","SUF":"","BORO":"Bronx","ZIP":"10459","STREET":"Longwood Avenue","PRECINCT":41},"geometry":{"type":"Point","coordinates":[1013148,236705]}},{"type":"Feature","properties":{"NUM":"830","SUF":"","BORO":"Bronx","ZIP":"10451","STREET":"Washington Avenue","PRECINCT":42},"geometry":{"type":"Point","coordinates":[1008807,238946]}},{"type":"Feature","properties":{"NUM":"900","SUF":"","BORO":"Bronx","ZIP":"10473","STREET":"Fteley Avenue","PRECINCT":43},"geometry":{"type":"Point","coordinates":[1020272,239193]}},{"type":"Feature","properties":{"NUM":"451","SUF":"","BORO":"Manhattan","ZIP":"10031","STREET":"West 151 Street","PRECINCT":30},"geometry":{"type":"Point","coordinates":[999825,241226]}},{"type":"Feature","properties":{"NUM":"2877","SUF":"","BORO":"Bronx","ZIP":"10465","STREET":"Barkley Avenue","PRECINCT":45},"geometry":{"type":"Point","coordinates":[1032036,242031]}},{"type":"Feature","properties":{"NUM":"2","SUF":"","BORO":"Bronx","ZIP":"10452","STREET":"East 169 Street","PRECINCT":44},"geometry":{"type":"Point","coordinates":[1006507,244428]}},{"type":"Feature","properties":{"NUM":"2207","SUF":"","BORO":"Manhattan","ZIP":"10032","STREET":"Amsterdam Avenue","PRECINCT":33},"geometry":{"type":"Point","coordinates":[1002046,245544]}},{"type":"Feature","properties":{"NUM":"450","SUF":"","BORO":"Bronx","ZIP":"10457","STREET":"Cross Bronx Expressway SR South","PRECINCT":48},"geometry":{"type":"Point","coordinates":[1011802,246769]}},{"type":"Feature","properties":{"NUM":"4295","SUF":"","BORO":"Manhattan","ZIP":"10033","STREET":"Broadway","PRECINCT":34},"geometry":{"type":"Point","coordinates":[1002130,249521]}},{"type":"Feature","properties":{"NUM":"2120","SUF":"","BORO":"Bronx","ZIP":"10457","STREET":"Ryer Avenue","PRECINCT":46},"geometry":{"type":"Point","coordinates":[1011881,250374]}},{"type":"Feature","properties":{"NUM":"2121","SUF":"","BORO":"Bronx","ZIP":"10461","STREET":"Eastchester Road","PRECINCT":49},"geometry":{"type":"Point","coordinates":[1027306,251188]}},{"type":"Feature","properties":{"NUM":"3016","SUF":"","BORO":"Bronx","ZIP":"10467","STREET":"Webster Avenue","PRECINCT":52},"geometry":{"type":"Point","coordinates":[1017527,255940]}},{"type":"Feature","properties":{"NUM":"3450","SUF":"","BORO":"Bronx","ZIP":"10463","STREET":"Kingsbridge Avenue","PRECINCT":50},"geometry":{"type":"Point","coordinates":[1011188,261211]}},{"type":"Feature","properties":{"NUM":"4111","SUF":"","BORO":"Bronx","ZIP":"10466","STREET":"Laconia Avenue","PRECINCT":47},"geometry":{"type":"Point","coordinates":[1026397,262646]}},{"type":"Feature","properties":{"NUM":"230","SUF":"","BORO":"Manhattan","ZIP":"10010","STREET":"East 21 Street","PRECINCT":13},"geometry":{"type":"Point","coordinates":[988971,207704]}}]}